ORBCOMM FM37            
1 33064U 08031E   25028.14793059  .00003496  00000+0  49818-3 0  9997
2 33064  48.4397 288.9755 0005816 133.7319  19.7795 14.78818322893310
ORBCOMM FM40            
1 33065U 08031F   25028.40135449  .00003939  00000+0  53248-3 0  9994
2 33065  48.4410 274.0228 0007303 146.3715  28.8248 14.80800322893432
VESSELSAT 1             
1 37840U 11058C   25028.18021410  .00000502  00000+0  12951-3 0  9998
2 37840  19.9600 221.0446 0013720  86.6201 273.5773 14.11300547686509
ORBCOMM FM109           
1 40086U 14040A   25028.18357475  .00001968  00000+0  46321-3 0  9996
2 40086  47.0040 317.3199 0001543  37.0748 323.0244 14.57738422560631
ORBCOMM FM107           
1 40087U 14040B   25028.21825407  .00001694  00000+0  40338-3 0  9994
2 40087  47.0057 318.1670 0001575 345.4641  14.6199 14.57802209560712
ORBCOMM FM111           
1 40089U 14040D   25028.27857963  .00006131  00000+0  72999-3 0  9993
2 40089  47.0030  19.8164 0030962 245.1109 114.6568 14.84938440569420
ORBCOMM FM104           
1 40090U 14040E   25028.26094514  .00001746  00000+0  42806-3 0  9990
2 40090  47.0060 349.9136 0017288 286.3561  73.5422 14.56253725560222
